{"type": "FeatureCollection", "features": [ {"type": "Feature", "properties": {"norad_id": 37971, "name": "COSMOS 2251 DEB", "group": "cosmos-2251-debris", "lat": -9.71358399681998, "lon": -159.02749096984041, "alt_km": 695.0950144296066, "timestamp": "2025-12-25T07:00:34.446147+00:00", "meta": {"OBJECT_NAME": "COSMOS 2251 DEB", "OBJECT_ID": "1993-036BPW", "EPOCH": "2025-12-21T19:16:34.897152", "MEAN_MOTION": 14.48757325, "ECCENTRICITY": 0.00659406, "INCLINATION": 73.9924, "RA_OF_ASC_NODE": 24.7096, "ARG_OF_PERICENTER": 161.9609, "MEAN_ANOMALY": 198.3914, "EPHEMERIS_TYPE": 0, "CLASSIFICATION_TYPE": "U", "NORAD_CAT_ID": 37971, "ELEMENT_SET_NO": 999, "REV_AT_EPOCH": 60809, "BSTAR": 0.0013046337, "MEAN_MOTION_DOT": 5.035e-05, "MEAN_MOTION_DDOT": 0}, "tle": {"line1": "1 37971U 93036BPW 25355.80318168  .00005035  00000+0  13046-2 0  9991", "line2": "2 37971  73.9924  24.7096 0065940 161.9609 198.3914 14.48757325608091"}}, "geometry": {"type": "Point", "coordinates": [-159.02749096984041, -9.71358399681998]}}, {"type": "Feature", "properties": {"norad_id": 37975, "name": "COSMOS 2251 DEB", "group": "cosmos-2251-debris", "lat": -60.20732580531884, "lon": 149.5007920425101, "alt_km": 596.9455237143211, "timestamp": "2025-12-25T07:00:34.446158+00:00", "meta": {"OBJECT_NAME": "COSMOS 2251 DEB", "OBJECT_ID": "1993-036BQA", "EPOCH": "2025-12-24T13:38:18.210912", "MEAN_MOTION": 14.76642504, "ECCENTRICITY": 0.00942439, "INCLINATION": 74.0025, "RA_OF_ASC_NODE": 300.8495, "ARG_OF_PERICENTER": 287.7537, "MEAN_ANOMALY": 71.3369, "EPHEMERIS_TYPE": 0, "CLASSIFICATION_TYPE": "U", "NORAD_CAT_ID": 37975, "ELEMENT_SET_NO": 999, "REV_AT_EPOCH": 69920, "BSTAR": 0.0036103843, "MEAN_MOTION_DOT": 0.00027223, "MEAN_MOTION_DDOT": 0}, "tle": {"line1": "1 37975U 93036BQA 25358.56826633  .00027223  00000+0  36104-2 0  9995", "line2": "2 37975  74.0025 300.8495 0094243 287.7537  71.3369 14.76642504699205"}}, "geometry": {"type": "Point", "coordinates": [149.5007920425101, -60.20732580531884]}}, {"type": "Feature", "properties": {"norad_id": 37985, "name": "COSMOS 2251 DEB", "group": "cosmos-2251-debris", "lat": -73.57733958786227, "lon": 139.08128883850694, "alt_km": 781.9497232564472, "timestamp": "2025-12-25T07:00:34.446168+00:00", "meta": {"OBJECT_NAME": "COSMOS 2251 DEB", "OBJECT_ID": "1993-036BQL", "EPOCH": "2025-12-21T23:09:40.593024", "MEAN_MOTION": 14.35485723, "ECCENTRICITY": 0.00211869, "INCLINATION": 74.025, "RA_OF_ASC_NODE": 248.8047, "ARG_OF_PERICENTER": 9.0301, "MEAN_ANOMALY": 351.1228, "EPHEMERIS_TYPE": 0, "CLASSIFICATION_TYPE": "U", "NORAD_CAT_ID": 37985, "ELEMENT_SET_NO": 999, "REV_AT_EPOCH": 65049, "BSTAR": 5.1256722e-05, "MEAN_MOTION_DOT": 1.21e-06, "MEAN_MOTION_DDOT": 0}, "tle": {"line1": "1 37985U 93036BQL 25355.96505316  .00000121  00000+0  51257-4 0  9995", "line2": "2 37985  74.0250 248.8047 0021186   9.0301 351.1228 14.35485723650494"}}, "geometry": {"type": "Point", "coordinates": [139.08128883850694, -73.57733958786227]}}, {"type": "Feature", "properties": {"norad_id": 37988, "name": "COSMOS 2251 DEB", "group": "cosmos-2251-debris", "lat": -22.629920386294582, "lon": -7.071695907913748, "alt_km": 645.0251462855131, "timestamp": "2025-12-25T07:00:34.446179+00:00", "meta": {"OBJECT_NAME": "COSMOS 2251 DEB", "OBJECT_ID": "1993-036BQP", "EPOCH": "2025-12-19T02:22:34.688640", "MEAN_MOTION": 14.6891967, "ECCENTRICITY": 0.00635463, "INCLINATION": 74.062, "RA_OF_ASC_NODE": 11.7337, "ARG_OF_PERICENTER": 47.3595, "MEAN_ANOMALY": 313.2907, "EPHEMERIS_TYPE": 0, "CLASSIFICATION_TYPE": "U", "NORAD_CAT_ID": 37988, "ELEMENT_SET_NO": 999, "REV_AT_EPOCH": 23489, "BSTAR": 0.00064166354, "MEAN_MOTION_DOT": 3.842e-05, "MEAN_MOTION_DDOT": 0}, "tle": {"line1": "1 37988U 93036BQP 25353.09901260  .00003842  00000+0  64166-3 0  9993", "line2": "2 37988  74.0620  11.7337 0063546  47.3595 313.2907 14.68919670234897"}}, "geometry": {"type": "Point", "coordinates": [-7.071695907913748, -22.629920386294582]}}, {"type": "Feature", "properties": {"norad_id": 37993, "name": "COSMOS 2251 DEB", "group": "cosmos-2251-debris", "lat": 65.5995448257667, "lon": -177.88012145896596, "alt_km": 700.5886935856279, "timestamp": "2025-12-25T07:00:34.446189+00:00", "meta": {"OBJECT_NAME": "COSMOS 2251 DEB", "OBJECT_ID": "1993-036BQU", "EPOCH": "2025-12-17T04:37:52.855104", "MEAN_MOTION": 14.59966404, "ECCENTRICITY": 0.00218755, "INCLINATION": 74.021, "RA_OF_ASC_NODE": 158.4097, "ARG_OF_PERICENTER": 246.7183, "MEAN_ANOMALY": 113.168, "EPHEMERIS_TYPE": 0, "CLASSIFICATION_TYPE": "U", "NORAD_CAT_ID": 37993, "ELEMENT_SET_NO": 999, "REV_AT_EPOCH": 65382, "BSTAR": 0.0010496489, "MEAN_MOTION_DOT": 5.024e-05, "MEAN_MOTION_DDOT": 0}, "tle": {"line1": "1 37993U 93036BQU 25351.19297286  .00005024  00000+0  10496-2 0  9994", "line2": "2 37993  74.0210 158.4097 0021875 246.7183 113.1680 14.59966404653827"}}, "geometry": {"type": "Point", "coordinates": [-177.88012145896596, 65.5995448257667]}}, {"type": "Feature", "properties": {"norad_id": 37994, "name": "COSMOS 2251 DEB", "group": "cosmos-2251-debris", "lat": -37.98838186894017, "lon": -120.40782468642779, "alt_km": 749.2453822163516, "timestamp": "2025-12-25T07:00:34.446199+00:00", "meta": {"OBJECT_NAME": "COSMOS 2251 DEB", "OBJECT_ID": "1993-036BQV", "EPOCH": "2025-12-24T19:31:08.598144", "MEAN_MOTION": 14.39649057, "ECCENTRICITY": 0.00233807, "INCLINATION": 74.0358, "RA_OF_ASC_NODE": 253.3938, "ARG_OF_PERICENTER": 330.7609, "MEAN_ANOMALY": 29.2236, "EPHEMERIS_TYPE": 0, "CLASSIFICATION_TYPE": "U", "NORAD_CAT_ID": 37994, "ELEMENT_SET_NO": 999, "REV_AT_EPOCH": 77238, "BSTAR": 0.00031030781, "MEAN_MOTION_DOT": 9.47e-06, "MEAN_MOTION_DDOT": 0}, "tle": {"line1": "1 37994U 93036BQV 25358.81329396  .00000947  00000+0  31031-3 0  9997", "line2": "2 37994  74.0358 253.3938 0023380 330.7609  29.2236 14.39649057772387"}}, "geometry": {"type": "Point", "coordinates": [-120.40782468642779, -37.98838186894017]}}, {"type": "Feature", "properties": {"norad_id": 37998, "name": "COSMOS 2251 DEB", "group": "cosmos-2251-debris", "lat": 49.81955231061936, "lon": 11.889600737907752, "alt_km": 748.49474949466, "timestamp": "2025-12-25T07:00:34.446209+00:00", "meta": {"OBJECT_NAME": "COSMOS 2251 DEB", "OBJECT_ID": "1993-036BQZ", "EPOCH": "2025-12-19T00:55:56.823168", "MEAN_MOTION": 14.45502343, "ECCENTRICITY": 0.00202427, "INCLINATION": 74.0345, "RA_OF_ASC_NODE": 223.3597, "ARG_OF_PERICENTER": 295.5973, "MEAN_ANOMALY": 64.3093, "EPHEMERIS_TYPE": 0, "CLASSIFICATION_TYPE": "U", "NORAD_CAT_ID": 37998, "ELEMENT_SET_NO": 999, "REV_AT_EPOCH": 64378, "BSTAR": 0.00035299512, "MEAN_MOTION_DOT": 1.221e-05, "MEAN_MOTION_DDOT": 0}, "tle": {"line1": "1 37998U 93036BQZ 25353.03885212  .00001221  00000+0  35300-3 0  9993", "line2": "2 37998  74.0345 223.3597 0020242 295.5973  64.3093 14.45502343643786"}}, "geometry": {"type": "Point", "coordinates": [11.889600737907752, 49.81955231061936]}}, {"type": "Feature", "properties": {"norad_id": 38001, "name": "COSMOS 2251 DEB", "group": "cosmos-2251-debris", "lat": 16.11910343974205, "lon": -77.17352053570004, "alt_km": 633.1369679722948, "timestamp": "2025-12-25T07:00:34.446219+00:00", "meta": {"OBJECT_NAME": "COSMOS 2251 DEB", "OBJECT_ID": "1993-036BRC", "EPOCH": "2025-12-24T14:06:30.774816", "MEAN_MOTION": 14.79211878, "ECCENTRICITY": 0.00654133, "INCLINATION": 74.0014, "RA_OF_ASC_NODE": 108.9705, "ARG_OF_PERICENTER": 256.3059, "MEAN_ANOMALY": 119.0701, "EPHEMERIS_TYPE": 0, "CLASSIFICATION_TYPE": "U", "NORAD_CAT_ID": 38001, "ELEMENT_SET_NO": 999, "REV_AT_EPOCH": 74883, "BSTAR": 0.00090669096, "MEAN_MOTION_DOT": 6.951e-05, "MEAN_MOTION_DDOT": 0}, "tle": {"line1": "1 38001U 93036BRC 25358.58785619  .00006951  00000+0  90669-3 0  9998", "line2": "2 38001  74.0014 108.9705 0065413 256.3059 119.0701 14.79211878748836"}}, "geometry": {"type": "Point", "coordinates": [-77.17352053570004, 16.11910343974205]}}, {"type": "Feature", "properties": {"norad_id": 38006, "name": "COSMOS 2251 DEB", "group": "cosmos-2251-debris", "lat": -41.17005496289727, "lon": -0.24891903261627707, "alt_km": 689.9099955914717, "timestamp": "2025-12-25T07:00:34.446230+00:00", "meta": {"OBJECT_NAME": "COSMOS 2251 DEB", "OBJECT_ID": "1993-036BRH", "EPOCH": "2025-12-10T03:36:37.956384", "MEAN_MOTION": 14.45867865, "ECCENTRICITY": 0.00758537, "INCLINATION": 73.8744, "RA_OF_ASC_NODE": 42.933, "ARG_OF_PERICENTER": 348.3853, "MEAN_ANOMALY": 11.555, "EPHEMERIS_TYPE": 0, "CLASSIFICATION_TYPE": "U", "NORAD_CAT_ID": 38006, "ELEMENT_SET_NO": 999, "REV_AT_EPOCH": 62922, "BSTAR": 0.0047338847, "MEAN_MOTION_DOT": 0.00017443, "MEAN_MOTION_DDOT": 0}, "tle": {"line1": "1 38006U 93036BRH 25344.15043931  .00017443  00000+0  47339-2 0  9998", "line2": "2 38006  73.8744  42.9330 0075853 348.3853  11.5550 14.45867865629227"}}, "geometry": {"type": "Point", "coordinates": [-0.24891903261627707, -41.17005496289727]}}, {"type": "Feature", "properties": {"norad_id": 38054, "name": "COSMOS 2251 DEB", "group": "cosmos-2251-debris", "lat": -66.13718431779856, "lon": 105.8371746819189, "alt_km": 805.0544504705676, "timestamp": "2025-12-25T07:00:34.446240+00:00", "meta": {"OBJECT_NAME": "COSMOS 2251 DEB", "OBJECT_ID": "1993-036BRL", "EPOCH": "2025-12-23T03:29:54.046752", "MEAN_MOTION": 13.62385705, "ECCENTRICITY": 0.0357327, "INCLINATION": 73.9543, "RA_OF_ASC_NODE": 248.7636, "ARG_OF_PERICENTER": 224.8054, "MEAN_ANOMALY": 302.3647, "EPHEMERIS_TYPE": 0, "CLASSIFICATION_TYPE": "U", "NORAD_CAT_ID": 38054, "ELEMENT_SET_NO": 999, "REV_AT_EPOCH": 67321, "BSTAR": 0.0018321676, "MEAN_MOTION_DOT": 2.157e-05, "MEAN_MOTION_DDOT": 0}, "tle": {"line1": "1 38054U 93036BRL 25357.14576443  .00002157  00000+0  18322-2 0  9999", "line2": "2 38054  73.9543 248.7636 0357327 224.8054 302.3647 13.62385705673215"}}, "geometry": {"type": "Point", "coordinates": [105.8371746819189, -66.13718431779856]}}]}